[{"OBJECT_NAME":"STARLINK-31093","OBJECT_ID":"2024-002N","EPOCH":"2026-03-09T16:21:38.970720","MEAN_MOTION":15.30187839,"ECCENTRICITY":0.00010032,"INCLINATION":53.1587,"RA_OF_ASC_NODE":230.0175,"ARG_OF_PERICENTER":97.7695,"MEAN_ANOMALY":262.342,"EPHEMERIS_TYPE":0,"CLASSIFICATION_TYPE":"U","NORAD_CAT_ID":58717,"ELEMENT_SET_NO":999,"REV_AT_EPOCH":12201,"BSTAR":5.386983e-6,"MEAN_MOTION_DOT":-1.99e-6,"MEAN_MOTION_DDOT":0},{"OBJECT_NAME":"TRANSPORTER-1 OBJECT L","OBJECT_ID":"2021-006L","EPOCH":"2026-03-09T22:38:42.795168","MEAN_MOTION":15.33192932,"ECCENTRICITY":0.00114726,"INCLINATION":97.2368,"RA_OF_ASC_NODE":117.6447,"ARG_OF_PERICENTER":180.5165,"MEAN_ANOMALY":179.6068,"EPHEMERIS_TYPE":0,"CLASSIFICATION_TYPE":"U","NORAD_CAT_ID":47423,"ELEMENT_SET_NO":999,"REV_AT_EPOCH":28445,"BSTAR":0.00025636794,"MEAN_MOTION_DOT":8.162e-5,"MEAN_MOTION_DDOT":0}]
